[
    {
        "Altitude(m)": 591761.3207471392,
        "Argument of Periapsis(deg)": 0.0,
        "Eccentricity": 0.0,
        "Inclination(deg)": 97.0,
        "Latitude(deg)": -82.39087386912387,
        "Longitude(deg)": 133.94980055156265,
        "Mean Anomaly(deg)": -93.10340000000005,
        "RAAN(deg)": 120.0,
        "Satellite Name": "Starlink Shell 3 1859",
        "Satellite Number": 1859,
        "Semi-Major Axis(m)": 6938478.169268562,
        "Time(s)": 0
    },
    {
        "Altitude(m)": 591784.0323653899,
        "Argument of Periapsis(deg)": -0.0003965466804030246,
        "Eccentricity": 0.0,
        "Inclination(deg)": 97.0,
        "Latitude(deg)": -82.61862490354552,
        "Longitude(deg)": 129.48700803904077,
        "Mean Anomaly(deg)": -92.47792380229494,
        "RAAN(deg)": 120.000104334274,
        "Satellite Name": "Starlink Shell 3 1859",
        "Satellite Number": 1859,
        "Semi-Major Axis(m)": 6938478.169268562,
        "Time(s)": 10
    },
    {
        "Altitude(m)": 591801.649825109,
        "Argument of Periapsis(deg)": -0.0007930933608060492,
        "Eccentricity": 0.0,
        "Inclination(deg)": 97.0,
        "Latitude(deg)": -82.80032749666172,
        "Longitude(deg)": 124.7737401951998,
        "Mean Anomaly(deg)": -91.85244760458994,
        "RAAN(deg)": 120.00020866854801,
        "Satellite Name": "Starlink Shell 3 1859",
        "Satellite Number": 1859,
        "Semi-Major Axis(m)": 6938478.169268562,
        "Time(s)": 20
    },
    {
        "Altitude(m)": 591814.1659673916,
        "Argument of Periapsis(deg)": -0.001189640041209074,
        "Eccentricity": 0.0,
        "Inclination(deg)": 97.0,
        "Latitude(deg)": -82.93243143668838,
        "Longitude(deg)": 119.85373045043498,
        "Mean Anomaly(deg)": -91.22697140688493,
        "RAAN(deg)": 120.00031300282204,
        "Satellite Name": "Starlink Shell 3 1859",
        "Satellite Number": 1859,
        "Semi-Major Axis(m)": 6938478.169268562,
        "Time(s)": 30
    },
    {
        "Altitude(m)": 591821.5756998166,
        "Argument of Periapsis(deg)": -0.0015861867216120985,
        "Eccentricity": 0.0,
        "Inclination(deg)": 97.0,
        "Latitude(deg)": -83.01212486896003,
        "Longitude(deg)": 114.78628845540553,
        "Mean Anomaly(deg)": -90.60149520917982,
        "RAAN(deg)": 120.00041733709604,
        "Satellite Name": "Starlink Shell 3 1859",
        "Satellite Number": 1859,
        "Semi-Major Axis(m)": 6938478.169268562,
        "Time(s)": 40
    },
    {
        "Altitude(m)": 591823.8759985878,
        "Argument of Periapsis(deg)": -0.0019827334020151234,
        "Eccentricity": 0.0,
        "Inclination(deg)": 97.0,
        "Latitude(deg)": -83.03760883493764,
        "Longitude(deg)": 109.64312422539508,
        "Mean Anomaly(deg)": -89.97601901147482,
        "RAAN(deg)": 120.00052167137005,
        "Satellite Name": "Starlink Shell 3 1859",
        "Satellite Number": 1859,
        "Semi-Major Axis(m)": 6938478.169268562,
        "Time(s)": 50
    },
    {
        "Altitude(m)": 591821.0659098256,
        "Argument of Periapsis(deg)": -0.002379280082418148,
        "Eccentricity": 0.0,
        "Inclination(deg)": 97.0,
        "Latitude(deg)": -83.00829085811051,
        "Longitude(deg)": 104.50275010656586,
        "Mean Anomaly(deg)": -89.35054281376974,
        "RAAN(deg)": 120.00062600564404,
        "Satellite Name": "Starlink Shell 3 1859",
        "Satellite Number": 1859,
        "Semi-Major Axis(m)": 6938478.169268562,
        "Time(s)": 60
    },
    {
        "Altitude(m)": 591813.1465499513,
        "Argument of Periapsis(deg)": -0.002775826762821173,
        "Eccentricity": 0.0,
        "Inclination(deg)": 97.0,
        "Latitude(deg)": -82.92485180980265,
        "Longitude(deg)": 99.44342298548152,
        "Mean Anomaly(deg)": -88.72506661606468,
        "RAAN(deg)": 120.00073033991804,
        "Satellite Name": "Starlink Shell 3 1859",
        "Satellite Number": 1859,
        "Semi-Major Axis(m)": 6938478.169268562,
        "Time(s)": 70
    },
    {
        "Altitude(m)": 591800.1211052336,
        "Argument of Periapsis(deg)": -0.003172373443224197,
        "Eccentricity": 0.0,
        "Inclination(deg)": 97.0,
        "Latitude(deg)": -82.78916919969869,
        "Longitude(deg)": 94.5361415247462,
        "Mean Anomaly(deg)": -88.09959041835968,
        "RAAN(deg)": 120.00083467419205,
        "Satellite Name": "Starlink Shell 3 1859",
        "Satellite Number": 1859,
        "Semi-Major Axis(m)": 6938478.169268562,
        "Time(s)": 80
    },
    {
        "Altitude(m)": 591781.994830444,
        "Argument of Periapsis(deg)": -0.0035689201236272223,
        "Eccentricity": 0.0,
        "Inclination(deg)": 97.0,
        "Latitude(deg)": -82.60411618338365,
        "Longitude(deg)": 89.83919557679047,
        "Mean Anomaly(deg)": -87.47411422065463,
        "RAAN(deg)": 120.00093900846606,
        "Satellite Name": "Starlink Shell 3 1859",
        "Satellite Number": 1859,
        "Semi-Major Axis(m)": 6938478.169268562,
        "Time(s)": 90
    },
    {
        "Altitude(m)": 591758.7750466489,
        "Argument of Periapsis(deg)": -0.003965466804030247,
        "Eccentricity": 0.0,
        "Inclination(deg)": 97.0,
        "Latitude(deg)": -82.37328346751674,
        "Longitude(deg)": 85.39517683127212,
        "Mean Anomaly(deg)": -86.84863802294956,
        "RAAN(deg)": 120.00104334274008,
        "Satellite Name": "Starlink Shell 3 1859",
        "Satellite Number": 1859,
        "Semi-Major Axis(m)": 6938478.169268562,
        "Time(s)": 100
    },
    {
        "Altitude(m)": 591730.4711381408,
        "Argument of Periapsis(deg)": -0.004362013484433271,
        "Eccentricity": 0.0,
        "Inclination(deg)": 97.0,
        "Latitude(deg)": -82.1006806313697,
        "Longitude(deg)": 81.23054472716802,
        "Mean Anomaly(deg)": -86.22316182524452,
        "RAAN(deg)": 120.0011476770141,
        "Satellite Name": "Starlink Shell 3 1859",
        "Satellite Number": 1859,
        "Semi-Major Axis(m)": 6938478.169268562,
        "Time(s)": 110
    },
    {
        "Altitude(m)": 591697.094548462,
        "Argument of Periapsis(deg)": -0.004758560164836296,
        "Eccentricity": 0.0,
        "Inclination(deg)": 97.0,
        "Latitude(deg)": -81.79046445951,
        "Longitude(deg)": 77.3571925668643,
        "Mean Anomaly(deg)": -85.5976856275395,
        "RAAN(deg)": 120.0012520112881,
        "Satellite Name": "Starlink Shell 3 1859",
        "Satellite Number": 1859,
        "Semi-Major Axis(m)": 6938478.169268562,
        "Time(s)": 120
    },
    {
        "Altitude(m)": 591658.6587756077,
        "Argument of Periapsis(deg)": -0.005155106845239321,
        "Eccentricity": 0.0,
        "Inclination(deg)": 97.0,
        "Latitude(deg)": -81.44672294398819,
        "Longitude(deg)": 73.77516924184091,
        "Mean Anomaly(deg)": -84.97220942983445,
        "RAAN(deg)": 120.00135634556212,
        "Satellite Name": "Starlink Shell 3 1859",
        "Satellite Number": 1859,
        "Semi-Major Axis(m)": 6938478.169268562,
        "Time(s)": 130
    },
    {
        "Altitude(m)": 591615.1793663373,
        "Argument of Periapsis(deg)": -0.005551653525642346,
        "Eccentricity": 0.0,
        "Inclination(deg)": 97.0,
        "Latitude(deg)": -81.0733241904411,
        "Longitude(deg)": 70.47576514650379,
        "Mean Anomaly(deg)": -84.34673323212945,
        "RAAN(deg)": 120.00146067983611,
        "Satellite Name": "Starlink Shell 3 1859",
        "Satellite Number": 1859,
        "Semi-Major Axis(m)": 6938478.169268562,
        "Time(s)": 140
    },
    {
        "Altitude(m)": 591566.6739096111,
        "Argument of Periapsis(deg)": -0.005948200206045371,
        "Eccentricity": 0.0,
        "Inclination(deg)": 97.0,
        "Latitude(deg)": -80.67382545930556,
        "Longitude(deg)": 67.44440965546865,
        "Mean Anomaly(deg)": -83.72125703442438,
        "RAAN(deg)": 120.00156501411014,
        "Satellite Name": "Starlink Shell 3 1859",
        "Satellite Number": 1859,
        "Semi-Major Axis(m)": 6938478.169268562,
        "Time(s)": 150
    },
    {
        "Altitude(m)": 591513.1620291965,
        "Argument of Periapsis(deg)": -0.006344746886448394,
        "Eccentricity": 0.0,
        "Inclination(deg)": 97.0,
        "Latitude(deg)": -80.25143040341322,
        "Longitude(deg)": 64.66308547766386,
        "Mean Anomaly(deg)": -83.09578083671934,
        "RAAN(deg)": 120.00166934838414,
        "Satellite Name": "Starlink Shell 3 1859",
        "Satellite Number": 1859,
        "Semi-Major Axis(m)": 6938478.169268562,
        "Time(s)": 160
    },
    {
        "Altitude(m)": 591454.6653753947,
        "Argument of Periapsis(deg)": -0.00674129356685142,
        "Eccentricity": 0.0,
        "Inclination(deg)": 97.0,
        "Latitude(deg)": -79.80898081170766,
        "Longitude(deg)": 62.11216961988298,
        "Mean Anomaly(deg)": -82.47030463901427,
        "RAAN(deg)": 120.00177368265815,
        "Satellite Name": "Starlink Shell 3 1859",
        "Satellite Number": 1859,
        "Semi-Major Axis(m)": 6938478.169268562,
        "Time(s)": 170
    },
    {
        "Altitude(m)": 591391.2076158882,
        "Argument of Periapsis(deg)": -0.007137840247254445,
        "Eccentricity": 0.0,
        "Inclination(deg)": 97.0,
        "Latitude(deg)": -79.34897058441183,
        "Longitude(deg)": 59.771739218420755,
        "Mean Anomaly(deg)": -81.84482844130919,
        "RAAN(deg)": 120.00187801693214,
        "Satellite Name": "Starlink Shell 3 1859",
        "Satellite Number": 1859,
        "Semi-Major Axis(m)": 6938478.169268562,
        "Time(s)": 180
    }
]